[{"OBJECT_NAME":"STARLINK-34341","OBJECT_ID":"2025-112R","EPOCH":"2026-03-09T17:07:00.120576","MEAN_MOTION":15.05648529,"ECCENTRICITY":8.811e-5,"INCLINATION":97.602,"RA_OF_ASC_NODE":121.5765,"ARG_OF_PERICENTER":174.2519,"MEAN_ANOMALY":185.8719,"EPHEMERIS_TYPE":0,"CLASSIFICATION_TYPE":"U","NORAD_CAT_ID":64161,"ELEMENT_SET_NO":999,"REV_AT_EPOCH":4331,"BSTAR":7.2741545e-5,"MEAN_MOTION_DOT":9.89e-6,"MEAN_MOTION_DDOT":0},{"OBJECT_NAME":"IRIDIUM 33 DEB","OBJECT_ID":"1997-051GB","EPOCH":"2026-03-09T18:44:19.060224","MEAN_MOTION":15.02189476,"ECCENTRICITY":0.0010038,"INCLINATION":86.3931,"RA_OF_ASC_NODE":331.664,"ARG_OF_PERICENTER":138.3098,"MEAN_ANOMALY":291.9123,"EPHEMERIS_TYPE":0,"CLASSIFICATION_TYPE":"U","NORAD_CAT_ID":34486,"ELEMENT_SET_NO":999,"REV_AT_EPOCH":90290,"BSTAR":0.0023709806,"MEAN_MOTION_DOT":0.00031372,"MEAN_MOTION_DDOT":0}]
